#aV2011 12 28  0  0   .00000000      96 DD+AD WGS84 FIT  NGA
## 1668 259200.00000000   900.00000000 55923  .0000000000000
+   31     1  2  3  4  5  6  7  8  9 10 11 12 13 14 15 16 17
+         18 19 20 21 22 23 25 26 27 28 29 30 31 32  0  0  0
+          0  0  0  0  0  0  0  0  0  0  0  0  0  0  0  0  0
+          0  0  0  0  0  0  0  0  0  0  0  0  0  0  0  0  0
+          0  0  0  0  0  0  0  0  0  0  0  0  0  0  0  0  0
++         0  0  0  0  0  0  0  0  0  0  0  0  0  0  0  0  0
++         0  0  0  0  0  0  0  0  0  0  0  0  0  0  0  0  0
++         0  0  0  0  0  0  0  0  0  0  0  0  0  0  0  0  0
++         0  0  0  0  0  0  0  0  0  0  0  0  0  0  0  0  0
++         0  0  0  0  0  0  0  0  0  0  0  0  0  0  0  0  0
%c cc cc ccc ccc cccc cccc cccc cccc ccccc ccccc ccccc ccccc
%c cc cc ccc ccc cccc cccc cccc cccc ccccc ccccc ccccc ccccc
%f  0.0000000  0.000000000  0.00000000000  0.000000000000000
%f  0.0000000  0.000000000  0.00000000000  0.000000000000000
%i    0    0    0    0      0      0      0      0         0
%i    0    0    0    0      0      0      0      0         0
/*      NGA, ST. LOUIS,MO.                                  
/*   EPHEMERIS COMPUTED FROM  3 DAYS OF DATA                
/* CCCCCCCCCCCCCCCCCCCCCCCCCCCCCCCCCCCCCCCCCCCCCCCCCCCCCCCCC
/* CCCCCCCCCCCCCCCCCCCCCCCCCCCCCCCCCCCCCCCCCCCCCCCCCCCCCCCCC
*  2011 12 28  6 15   .00000000                                                 
P  1  -6579.508096 -14153.807788 -21508.256910    159.785202                    
V  1  26801.167849  -5067.926526  -4856.881030       .147130                    
P  2 -17464.073355  13789.052301  14201.846926    372.177689                    
V  2 -18387.863470    366.319853 -23606.303185       .017115                    
P  3  10433.389527 -23214.576683   6603.681932    814.457005                    
V  3   1756.929374   9727.166688  29691.366276       .050906                    
P  4 -25687.044410   6611.291922   3154.835801     46.249580                    
V  4  -4746.466668  -2514.980329 -30675.675143       .112502                    
P  5  -4946.943041  16530.740339  20134.802235   -263.438379                    
V  5 -17253.686925 -19061.451771  11518.814372      -.047213                    
P  6  14161.888844 -19849.448346  10335.222734     19.424321                    
V  6   -762.710385  13453.425771  27495.511117       .035687                    
P  7 -20534.836985  -7371.327395  15335.851070     46.134558                    
V  7  18853.137974  -4434.463232  22909.036198       .024845                    
P  8 -26291.489581  -1589.850503   5368.995391       .261944                    
V  8   6513.681626  -1598.590816  31220.540052      -.000325                    
P  9   2069.785991  14821.505076 -22492.106911    127.971921                    
V  9 -26738.033703   4801.255371    695.222599       .025941                    
P 10 -18586.836692  -1747.419829  18797.163446    -23.651966                    
V 10 -13907.182117 -19960.361779 -15018.899767      -.012106                    
P 11   -715.787216 -17682.126910 -20114.541003   -217.395647                    
V 11  23439.630520  -9214.107190   7738.909972      -.036956                    
P 12  10061.300298  22871.495245  -9253.102475     43.205804                    
V 12  -8740.327093  -7994.969839 -29063.454047       .022522                    
P 13  -9101.451306 -13144.540457  21056.337804    233.886104                    
V 13  12250.536904 -24067.816929  -9744.562786      -.020453                    
P 14  17033.268396  -7120.139139 -18864.862712    187.641526                    
V 14  -8812.728496  22705.509971 -16508.225943       .016256                    
P 15  -2563.173243  25025.964508  -8194.048421    -95.784159                    
V 15  -6458.230096   8843.024197  29212.970619       .008376                    
P 16   5954.924648 -15308.950603  20816.797605   -216.092766                    
V 16  16652.282118  20531.249611  10633.652260      -.018145                    
P 17 -16848.823039   4736.556892 -19749.502480    158.066515                    
V 17   8549.310036 -24046.067851 -13196.866570      -.020894                    
P 18  19947.508973  16025.607258  -7443.284489    173.983254                    
V 18   3591.348913   9744.393351  28902.573954       .018469                    
P 19   6908.867453 -24663.427039  -6289.219666   -219.681837                    
V 19   6197.457136  -5932.902147  30602.480889      -.038950                    
P 20 -11839.241498 -22413.675718  -8220.083867     58.878175                    
V 20   9342.325806   5395.147581 -28648.351132       .007742                    
P 21  23578.763266   5362.688785  12085.555282   -193.751397                    
V 21 -13928.678854   4796.217816  25426.375111      -.024572                    
P 22  19238.222423   2552.300430 -18006.260139    142.993634                    
V 22  12931.465609  19469.199352  16306.142145      -.002663                    
P 23  -3356.754377 -21141.937681  15513.669275    246.984020                    
V 23   9210.467974 -17652.212419 -22454.649876      -.033225                    
P 25  17398.977796  20087.048102    576.992823     30.657295                    
V 25  -1498.907465   2252.205780 -31853.606244       .004211                    
P 26 -12455.819970  23052.302774   2137.395502   -277.731595                    
V 26   -686.698387  -4171.617937  32403.056767      -.139665                    
P 27  -5549.208000  15087.226002 -20406.854394    340.354123                    
V 27 -27079.914340   4574.405192  10834.139792       .040636                    
P 28 -19201.258600  -7087.589864 -16517.601605     97.224428                    
V 28 -11884.300694 -18438.780447  20804.095082       .036489                    
P 29   9302.801141  14377.375091  20376.436237    269.963408                    
V 29 -10923.189171  23297.882627 -11450.453457       .033397                    
P 30  13393.302856  -7736.109736  21238.458657      9.283426                    
V 30  19391.172135  19948.766035  -4872.610019      -.119562                    
P 31  24634.696601  -8100.812779   6475.413414    188.207278                    
V 31   8077.874813    688.446145 -30632.497169       .049135                    
P 32  -3803.729980 -22610.641735 -13558.877555   -383.961365                    
V 32  11621.557637  13185.806788 -24363.372684      -.057829                    
EOF
